[{"Id":"ALFKI","CompanyName":"Alfreds Feed Box","ContactName":"Christopher Klein","ContactTitle":"Sales Representative","Address":"328 Summerwood Dr","City":"Panama City Beach","Region":"Southeast","PostalCode":"32413","State":"Florida","Phone":"(850) 249-7531","Fax":null},{"Id":"ANATR","CompanyName":"Ana Trujillo Sandwiches and Ice Cream","ContactName":"Atticus Hinton","ContactTitle":"Owner","Address":"3160 Us 20 Hwy","City":"Metamora","Region":"Midwest","PostalCode":"43540","State":"Ohio","Phone":"(419) 644-9599","Fax":null},{"Id":"ANTON","CompanyName":"Antonio Moreno Taqueria","ContactName":"Kirandeep Mccaffrey","ContactTitle":"Owner","Address":"35 Condit St","City":"Succasunna","Region":"Northeast","PostalCode":"7876","State":"New Jersey","Phone":"(973) 601-0896","Fax":null},{"Id":"AROUT","CompanyName":"Around the Horn","ContactName":"Ranveer Ward","ContactTitle":"Sales Representative","Address":"616 Grandview Pl","City":"Troy","Region":"Southeast","PostalCode":"38260","State":"Tennessee","Phone":"(731) 536-6543","Fax":null},{"Id":"BERGS","CompanyName":"Berglunds Quick Copy","ContactName":"Gerald Stubbs","ContactTitle":"Order Administrator","Address":"1160 Bridgeport Rd","City":"Scottsville","Region":"Southeast","PostalCode":"24590","State":"Virginia","Phone":"(434) 286-3151","Fax":null},{"Id":"BLAUS","CompanyName":"Blue Lake Delicacies","ContactName":"Gary Whitmore","ContactTitle":"Sales Representative","Address":"122 W Wilson Ave","City":"Shawneetown","Region":"Midwest","PostalCode":"62984","State":"Illinois","Phone":"(618) 269-3418","Fax":null},{"Id":"BLONP","CompanyName":"Blondel Father and Son","ContactName":"Mathilda Watts","ContactTitle":"Marketing Manager","Address":"3564 1st Ave","City":"Davenport","Region":"West","PostalCode":"95017","State":"California","Phone":"(503) 684-4004","Fax":null},{"Id":"BOLID","CompanyName":"Bollet Prepared Meals","ContactName":"Gaia Haines","ContactTitle":"Owner","Address":"45259 290th St","City":"Viborg","Region":"Midwest","PostalCode":"57070","State":"South Dakota","Phone":"(605) 326-5338","Fax":null},{"Id":"BONAP","CompanyName":"Bon Appetit","ContactName":"Esmai Beech","ContactTitle":"Owner","Address":"249 Trace Dr","City":"Lancaster","Region":"Midwest","PostalCode":"43130","State":"Ohio","Phone":"(740) 654-7233","Fax":null},{"Id":"BOTTM","CompanyName":"Bottom-Dollar Markets","ContactName":"Tyriq Dalton","ContactTitle":"Accounting Manager","Address":"892 Cross Gates Blvd","City":"Slidell","Region":"Southeast","PostalCode":"70461","State":"Louisiana","Phone":"(985) 781-4425","Fax":null},{"Id":"BSBEV","CompanyName":"Bs Beverages","ContactName":"Kenya Hayes","ContactTitle":"Sales Representative","Address":"Sims Hill Rd","City":"Morton","Region":"Southeast","PostalCode":"39117","State":"Mississippi","Phone":"(601) 732-2292","Fax":null},{"Id":"CACTU","CompanyName":"Cactus Carrying Meals","ContactName":"Theo King","ContactTitle":"Sales Agent","Address":"12072 Glasgow Rd SW","City":"Port Washington","Region":"Midwest","PostalCode":"43837","State":"Ohio","Phone":"(740) 498-5272","Fax":null},{"Id":"CENTC","CompanyName":"Moctezuma Shopping Center","ContactName":"Carole Newton","ContactTitle":"Marketing Manager","Address":"108 E Rr 1","City":"Ferris","Region":"Southwest","PostalCode":"75125","State":"Texas","Phone":"(972) 842-3806","Fax":null},{"Id":"CHOPS","CompanyName":"Chop-Suey Chinese","ContactName":"Sara Horton","ContactTitle":"Owner","Address":"209 Teaberry Ln","City":"Jim Thorpe","Region":"Northeast","PostalCode":"18229","State":"Pennsylvania","Phone":"(570) 325-9978","Fax":null},{"Id":"COMMI","CompanyName":"Mining Trade","ContactName":"Hudson Harris","ContactTitle":"Sales Associate","Address":"521 Clinchview St","City":"North Tazewell","Region":"Southeast","PostalCode":"24630","State":"Virginia","Phone":"(276) 988-6216","Fax":null},{"Id":"CONSH","CompanyName":"Consolidated Holdings","ContactName":"Pierre Gamble","ContactTitle":"Sales Representative","Address":"2600 Crystal Cove Rd","City":"Madison Lake","Region":"Midwest","PostalCode":"56063","State":"Minnesota","Phone":"(507) 243-3643","Fax":null},{"Id":"DRACD","CompanyName":"Dragonblood Delicatessen","ContactName":"Gracelyn Jackson","ContactTitle":"Order Administrator","Address":"1462 Perry Johnson Rd","City":"Pine Hill","Region":"Southeast","PostalCode":"36769","State":"Alabama","Phone":"(334) 682-5134","Fax":null},{"Id":"DUMON","CompanyName":"Of The Whole World","ContactName":"Kerys Wilde","ContactTitle":"Owner","Address":"2996 Ovett Moselle Rd","City":"Ovett","Region":"Southeast","PostalCode":"39464","State":"Mississippi","Phone":"(601) 344-0657","Fax":null},{"Id":"EASTC","CompanyName":"Eastern Connection","ContactName":"Corrie Goldsmith","ContactTitle":"Sales Agent","Address":"1657 Ferro Ln","City":"Toms River","Region":"Northeast","PostalCode":"8755","State":"New Jersey","Phone":"(732) 286-9009","Fax":null},{"Id":"ERNSH","CompanyName":"Serious Trade","ContactName":"Lauren Watts","ContactTitle":"Sales Manager","Address":"2945 College Park Dr","City":"Middleburg","Region":"Southeast","PostalCode":"32068","State":"Florida","Phone":"(904) 276-2794","Fax":null},{"Id":"FAMIA","CompanyName":"Archibalds Family","ContactName":"Ainsley Ramsey","ContactTitle":"Marketing Assistant","Address":"355 Hallet Rd","City":"East Stroudsburg","Region":"Northeast","PostalCode":"18301","State":"Pennsylvania","Phone":"(570) 424-1940","Fax":null},{"Id":"FISSA","CompanyName":"Fissa Inter Sausages","ContactName":"Maiya Vinson","ContactTitle":"Accounting Manager","Address":"1693 Oday Ln","City":"Marcus Hook","Region":"Northeast","PostalCode":"19061","State":"Pennsylvania","Phone":"(610) 494-7620","Fax":null},{"Id":"FOLIG","CompanyName":"Gourmet Folies","ContactName":"Arabella OReilly","ContactTitle":"Assistant Sales Agent","Address":"Po Box 666","City":"Cedar Crest","Region":"Southwest","PostalCode":"87008","State":"New Mexico","Phone":"(505) 286-7617","Fax":null},{"Id":"FOLKO","CompanyName":"People and HB","ContactName":"Dexter Thomas","ContactTitle":"Owner","Address":"560 Caesar Dr","City":"Avon","Region":"Midwest","PostalCode":"46123","State":"Indiana","Phone":"(317) 272-0059","Fax":null},{"Id":"FRANK","CompanyName":"Francs","ContactName":"Clare ODoherty","ContactTitle":"Marketing Manager","Address":"103 Blueberry Ln","City":"Laconia","Region":"Northeast","PostalCode":"3246","State":"New Hampshire","Phone":"(603) 524-6990","Fax":null},{"Id":"FRANR","CompanyName":"France Restoration","ContactName":"Keely Nguyen","ContactTitle":"Marketing Manager","Address":"1919 Creston Rd","City":"Paso Robles","Region":"West","PostalCode":"93446","State":"California","Phone":"(805) 238-2382","Fax":null},{"Id":"FRANS","CompanyName":"Francchi S.P.A.","ContactName":"Layla-Mae Molloy","ContactTitle":"Sales Representative","Address":"12327 Deer Crossing Trl","City":"Ashland","Region":"Southeast","PostalCode":"23005","State":"Virginia","Phone":"(804) 798-6346","Fax":null},{"Id":"FURIB","CompanyName":"Furia Cod And Seafood","ContactName":"Keaton Swan","ContactTitle":"Sales Manager","Address":"143 Kiel Ave","City":"Butler","Region":"Northeast","PostalCode":"7405","State":"New Jersey","Phone":"(973) 283-2224","Fax":null},{"Id":"GALED","CompanyName":"Gallery of Gourmet","ContactName":"Jayson Jones","ContactTitle":"Marketing Manager","Address":"5487 Cascade Dr","City":"Lisle","Region":"Midwest","PostalCode":"60532","State":"Illinois","Phone":"(630) 968-3697","Fax":null},{"Id":"GODOS","CompanyName":"Goths Typical Kitchen","ContactName":"Zahara Franco","ContactTitle":"Sales Manager","Address":"6850 221st Hwy","City":"Moore","Region":"Southeast","PostalCode":"29369","State":"South Carolina","Phone":"(864) 595-9014","Fax":null},{"Id":"GOURL","CompanyName":"Gourmet Snack Bars","ContactName":"Ezra Gilbert","ContactTitle":"Sales Associate","Address":"772 River Rd","City":"Hillsborough","Region":"Northeast","PostalCode":"8844","State":"New Jersey","Phone":"(908) 336-0503","Fax":null},{"Id":"GREAL","CompanyName":"Great Lakes Food Market","ContactName":"Jared Simpson","ContactTitle":"Marketing Manager","Address":"31 Chipman Rd","City":"Beverly","Region":"Northeast","PostalCode":"1915","State":"Massachusetts","Phone":"(978) 922-9014","Fax":null},{"Id":"GROSR","CompanyName":"Grosella-Restaurant","ContactName":"Leilani Foster","ContactTitle":"Owner","Address":"5403 Sage Ct","City":"Rocklin","Region":"West","PostalCode":"95765","State":"California","Phone":"(916) 251-7515","Fax":null},{"Id":"HANAR","CompanyName":"Hanari Carnes","ContactName":"Nola Moreno","ContactTitle":"Accounting Manager","Address":"515 Main St","City":"Meridian","Region":"Southwest","PostalCode":"76665","State":"Texas","Phone":"(254) 759-1314","Fax":null},{"Id":"HILAA","CompanyName":"Hilarion-Abastos","ContactName":"Zayden Neal","ContactTitle":"Sales Representative","Address":"3564 1st Ave","City":"Davenport","Region":"West","PostalCode":"95017","State":"California","Phone":"(503) 684-4004","Fax":null},{"Id":"HUNGC","CompanyName":"Hungry Coyote","ContactName":"Keith Douglas","ContactTitle":"Sales Representative","Address":"959 Steele Blvd","City":"Baldwin","Region":"Northeast","PostalCode":"11510","State":"New York","Phone":"(631) 862-6725","Fax":null},{"Id":"HUNGO","CompanyName":"Owl All-Night Grocers","ContactName":"Isabel Castillo","ContactTitle":"Sales Associate","Address":"9605 Grafton Ln","City":"Williamsport","Region":"Northeast","PostalCode":"21795","State":"Maryland","Phone":"(301) 223-7598","Fax":null},{"Id":"ISLAT","CompanyName":"Island Trading","ContactName":"Alina King","ContactTitle":"Marketing Manager","Address":"272 Constitution Cir","City":"North Brunswick","Region":"Northeast","PostalCode":"8902","State":"New Jersey","Phone":"(732) 514-1444","Fax":null},{"Id":"KOENE","CompanyName":"Royal Food","ContactName":"Noel Parson","ContactTitle":"Sales Associate","Address":"14 Buena Vista Dr","City":"Crossville","Region":"Southeast","PostalCode":"38555","State":"Tennessee","Phone":"(931) 484-4525","Fax":null},{"Id":"LACOR","CompanyName":"The Cornucopia","ContactName":"Alivia Howarth","ContactTitle":"Sales Representative","Address":"11114 120th Ave","City":"Pleasant Prairie","Region":"Midwest","PostalCode":"53158","State":"Wisconsin","Phone":"(262) 857-7742","Fax":null},{"Id":"LAMAI","CompanyName":"The House of Asia","ContactName":"Shreya Witt","ContactTitle":"Sales Manager","Address":"28453 Darden Point Rd","City":"Courtland","Region":"Southeast","PostalCode":"23837","State":"Virginia","Phone":"(757) 562-5958","Fax":null},{"Id":"LAUGB","CompanyName":"Laughing Bacchus Wine Cellars","ContactName":"Kavita Andrew","ContactTitle":"Marketing Assistant","Address":"3228 Johnson Lake Dr","City":"Valdosta","Region":"Southeast","PostalCode":"31606","State":"Georgia","Phone":"(229) 242-1379","Fax":null},{"Id":"LAZYK","CompanyName":"Lazy K Kountry Store","ContactName":"Sorcha Washington","ContactTitle":"Marketing Manager","Address":"1510 Richards Ave","City":"Clarksburg","Region":"Southeast","PostalCode":"26301","State":"West Virginia","Phone":"(304) 624-6719","Fax":null},{"Id":"LEHMS","CompanyName":"Lehmanns Market","ContactName":"Mason Briggs","ContactTitle":"Sales Representative","Address":"1345 Oaks End St","City":"Bridge City","Region":"Southwest","PostalCode":"77611","State":"Texas","Phone":"(409) 697-8051","Fax":null},{"Id":"LETSS","CompanyName":"Lets Stop N Shop","ContactName":"Percy Tyson","ContactTitle":"Owner","Address":"2203 Silverado Trl","City":"Napa","Region":"West","PostalCode":"94558","State":"California","Phone":"(707) 255-8632","Fax":null},{"Id":"LILAS","CompanyName":"Lilac-Supermarket","ContactName":"Harlow Gross","ContactTitle":"Accounting Manager","Address":"2071 Lewie Rd","City":"Leesville","Region":"Southeast","PostalCode":"29070","State":"South Carolina","Phone":"(803) 892-2030","Fax":null},{"Id":"LINOD","CompanyName":"Lino-Delicateses","ContactName":"Alani Torres","ContactTitle":"Owner","Address":"445 Main St","City":"Clearwater","Region":"Midwest","PostalCode":"55320","State":"Minnesota","Phone":"(320) 558-9299","Fax":null},{"Id":"LONEP","CompanyName":"Lonesome Pine Restaurant","ContactName":"Meghan Johnson","ContactTitle":"Sales Manager","Address":"Po Box 443","City":"Arivaca","Region":"Southwest","PostalCode":"85601","State":"Arizona","Phone":"(520) 398-2241","Fax":null},{"Id":"MAGAA","CompanyName":"Food Warehouses Gathered","ContactName":"Makayla Ortiz","ContactTitle":"Marketing Manager","Address":"6104 W Chickadee Pl","City":"Sioux Falls","Region":"Midwest","PostalCode":"57107","State":"South Dakota","Phone":"(605) 978-0130","Fax":null},{"Id":"MAISD","CompanyName":"House Dewey","ContactName":"Kyler Cox","ContactTitle":"Sales Agent","Address":"12421 Parkfield Rd","City":"Louisville","Region":"Southeast","PostalCode":"40223","State":"Kentucky","Phone":"(502) 244-5505","Fax":null},{"Id":"MEREP","CompanyName":"More Paillarde","ContactName":"Aniya Weiss","ContactTitle":"Marketing Assistant","Address":"5604 Tower Rd","City":"Riverside","Region":"West","PostalCode":"92506","State":"California","Phone":"(951) 682-5652","Fax":null},{"Id":"MORGK","CompanyName":"Morgenstern Health Food","ContactName":"Storm Stott","ContactTitle":"Marketing Assistant","Address":"310 E Donna Dr","City":"Wylie","Region":"Southwest","PostalCode":"75098","State":"Texas","Phone":"(972) 429-4719","Fax":null},{"Id":"NORTS","CompanyName":"North/South","ContactName":"Lily-Rose Mustafa","ContactTitle":"Sales Associate","Address":"5169 Fm 992 N","City":"De Kalb","Region":"Southwest","PostalCode":"75559","State":"Texas","Phone":"(903) 667-4975","Fax":null},{"Id":"OCEAN","CompanyName":"Atlantic Ocean Ltd","ContactName":"Aylin Phillips","ContactTitle":"Sales Agent","Address":"500 W Columbus St","City":"Bakersfield","Region":"West","PostalCode":"93301","State":"California","Phone":"(661) 348-4811","Fax":null},{"Id":"OLDWO","CompanyName":"Old World Delicatessen","ContactName":"River Watson","ContactTitle":"Sales Representative","Address":"12837 Country Club Ln","City":"Holton","Region":"Midwest","PostalCode":"66436","State":"Kansas","Phone":"(785) 364-2584","Fax":null},{"Id":"OTTIK","CompanyName":"Ottilies Cheese Shop","ContactName":"Jeffrey Briggs","ContactTitle":"Owner","Address":"7 Cargill Dr","City":"Bella Vista","Region":"Southeast","PostalCode":"72715","State":"Arkansas","Phone":"(479) 855-0165","Fax":null},{"Id":"PARIS","CompanyName":"Paris Specialties","ContactName":"Bella Lane","ContactTitle":"Owner","Address":"Po Box 1191","City":"Libby","Region":"West","PostalCode":"59923","State":"Montana","Phone":"(406) 293-2806","Fax":null},{"Id":"PERIC","CompanyName":"Pericles Classical Meals","ContactName":"Winston Gay","ContactTitle":"Sales Representative","Address":"Po Box 1","City":"Brackney","Region":"Northeast","PostalCode":"18812","State":"Pennsylvania","Phone":"(570) 663-2099","Fax":null},{"Id":"PICCO","CompanyName":"Piccolo and More","ContactName":"Bogdan Nunez","ContactTitle":"Sales Manager","Address":"2880 Tuscarora Trl","City":"Middleburg","Region":"Southeast","PostalCode":"32068","State":"Florida","Phone":"(904) 291-6059","Fax":null},{"Id":"PRINI","CompanyName":"Princess Isabel Wines","ContactName":"Brody Arias","ContactTitle":"Sales Representative","Address":"533 Havenview Ln","City":"Hardeeville","Region":"Southeast","PostalCode":"29927","State":"South Carolina","Phone":"(843) 645-2645","Fax":null},{"Id":"QUEDE","CompanyName":"Delicious","ContactName":"Jobe Lowe","ContactTitle":"Accounting Manager","Address":"651 Memorial Dr #C9","City":"Pocatello","Region":"West","PostalCode":"83201","State":"Idaho","Phone":"(208) 478-9091","Fax":null},{"Id":"QUEEN","CompanyName":"Kitchen","ContactName":"Clive Camacho","ContactTitle":"Marketing Assistant","Address":"12020 Reisterstown Rd","City":"Reisterstown","Region":"Northeast","PostalCode":"21136","State":"Maryland","Phone":"(410) 517-2246","Fax":null},{"Id":"QUICK","CompanyName":"Quick-Stop","ContactName":"Hailey Hopkins","ContactTitle":"Accounting Manager","Address":"213 Storeyland Dr","City":"Cottage Hills","Region":"Midwest","PostalCode":"62018","State":"Illinois","Phone":"(618) 258-7194","Fax":null},{"Id":"RANCH","CompanyName":"Big Ranch","ContactName":"Jane Davis","ContactTitle":"Sales Representative","Address":"8 Woods Rd","City":"Lake Placid","Region":"Northeast","PostalCode":"12946","State":"New York","Phone":"(518) 523-9575","Fax":null},{"Id":"RATTC","CompanyName":"Rattlesnake Canyon Grocery","ContactName":"Angelo Hughes","ContactTitle":"Assistant Sales Representative","Address":"219 2nd St","City":"Oakland City","Region":"Midwest","PostalCode":"47660","State":"Indiana","Phone":"(812) 749-4623","Fax":null},{"Id":"REGGC","CompanyName":"Reggiani Dairies","ContactName":"Mikail Barr","ContactTitle":"Sales Associate","Address":"521 Clinchview St","City":"North Tazewell","Region":"Southeast","PostalCode":"24630","State":"Virginia","Phone":"(276) 988-6216","Fax":null},{"Id":"RICAR","CompanyName":"Ricardo","ContactName":"Alexie Page","ContactTitle":"Assistant Sales Agent","Address":"6850 221st Hwy","City":"Moore","Region":"Southeast","PostalCode":"29369","State":"South Carolina","Phone":"(864) 595-9014","Fax":null},{"Id":"RICSU","CompanyName":"Richter Supermarket","ContactName":"Knox Morgan","ContactTitle":"Sales Manager","Address":"2354 Ziner Cir S","City":"Grove City","Region":"Midwest","PostalCode":"43123","State":"Ohio","Phone":"(614) 871-0347","Fax":null},{"Id":"ROMEY","CompanyName":"Romero and Thyme","ContactName":"Ines Riddle","ContactTitle":"Accounting Manager","Address":"101 W Ridge Ave","City":"Sharpsville","Region":"Northeast","PostalCode":"16150","State":"Pennsylvania","Phone":"(724) 962-1842","Fax":null},{"Id":"SANTG","CompanyName":"Sante Gourmet","ContactName":"Craig Vargas","ContactTitle":"Owner","Address":"2880 Tuscarora Trl","City":"Middleburg","Region":"Southeast","PostalCode":"32068","State":"Florida","Phone":"(904) 291-6059","Fax":null},{"Id":"SAVEA","CompanyName":"Save-A-Lot Markets","ContactName":"Adeline Rogers","ContactTitle":"Sales Representative","Address":"1100 Lincoln St","City":"Centerville","Region":"Midwest","PostalCode":"57014","State":"South Dakota","Phone":"(605) 552-2360","Fax":null},{"Id":"SEVES","CompanyName":"Seven Seas Imports","ContactName":"Alessia Cousins","ContactTitle":"Sales Manager","Address":"235 Goodsprings Rd","City":"Stewartsville","Region":"Northeast","PostalCode":"8886","State":"New Jersey","Phone":"(908) 859-0689","Fax":null},{"Id":"SIMOB","CompanyName":"Simons Bistro","ContactName":"Aman Petty","ContactTitle":"Owner","Address":"306 County Rd #7530","City":"Call","Region":"Southwest","PostalCode":"75933","State":"Texas","Phone":"(409) 423-6498","Fax":null},{"Id":"SPECD","CompanyName":"Worlds Specialties","ContactName":"Mikael Monaghan","ContactTitle":"Marketing Manager","Address":"1204 Main St #B","City":"West Point","Region":"Southeast","PostalCode":"40177","State":"Kentucky","Phone":"(502) 324-0098","Fax":null},{"Id":"SPLIR","CompanyName":"Split Rail Beer & Ale","ContactName":"Franciszek Galindo","ContactTitle":"Sales Manager","Address":"108 N Delaware Ave","City":"Fulda","Region":"Midwest","PostalCode":"56131","State":"Minnesota","Phone":"(507) 425-3353","Fax":null},{"Id":"SUPRD","CompanyName":"Supreme Delights","ContactName":"Hazel Walker","ContactTitle":"Accounting Manager","Address":"22025 Louis Rd","City":"Bedford","Region":"Midwest","PostalCode":"44146","State":"Ohio","Phone":"(216) 581-0009","Fax":null},{"Id":"THEBI","CompanyName":"The Big Cheese","ContactName":"Lyla-Rose Patel","ContactTitle":"Marketing Manager","Address":"56194 Onaga Trl","City":"Yucca Valley","Region":"West","PostalCode":"92284","State":"California","Phone":"(760) 365-1864","Fax":null},{"Id":"THECR","CompanyName":"The Cracker Box","ContactName":"Edgar Ramos","ContactTitle":"Marketing Assistant","Address":"1785 Paul Baker Rd","City":"Fordsville","Region":"Southeast","PostalCode":"42343","State":"Kentucky","Phone":"(270) 276-3193","Fax":null},{"Id":"TOMSP","CompanyName":"Toms Specialties","ContactName":"Malachy Wilkerson","ContactTitle":"Marketing Manager","Address":"4624 Smithview Ave NW","City":"Massillon","Region":"Midwest","PostalCode":"44647","State":"Ohio","Phone":"(330) 832-3124","Fax":null},{"Id":"TORTU","CompanyName":"Turtle Restaurant","ContactName":"Weronika Ray","ContactTitle":"Owner","Address":"325 N Ann St","City":"Byron","Region":"Midwest","PostalCode":"48418","State":"Michigan","Phone":"(810) 266-0090","Fax":null},{"Id":"TRADH","CompanyName":"Hypermarket Tradition","ContactName":"Lula Curran","ContactTitle":"Sales Representative","Address":"515 Main St","City":"Meridian","Region":"Southwest","PostalCode":"76665","State":"Texas","Phone":"(254) 759-1314","Fax":null},{"Id":"TRAIH","CompanyName":"Trails Head Gourmet","ContactName":"Devonte Greenwood","ContactTitle":"Sales Associate","Address":"5780 Tonkas Trl","City":"Charles City","Region":"Southeast","PostalCode":"23030","State":"Virginia","Phone":"(804) 829-2486","Fax":null},{"Id":"VAFFE","CompanyName":"Waffle Iron","ContactName":"Kaylani Torres","ContactTitle":"Sales Manager","Address":"3105 Cabeza Rd","City":"Nordheim","Region":"Southwest","PostalCode":"78141","State":"Texas","Phone":"(361) 938-5480","Fax":null},{"Id":"VICTE","CompanyName":"In Stock","ContactName":"Kendrick Garza","ContactTitle":"Sales Agent","Address":"201 Coral Cir","City":"Phoenix","Region":"West","PostalCode":"97535","State":"Oregon","Phone":"(541) 535-4290","Fax":null},{"Id":"VINET","CompanyName":"Wines and Knight Alcohols","ContactName":"Tillie Osborne","ContactTitle":"Accounting Manager","Address":"355 Hallet Rd","City":"East Stroudsburg","Region":"Northeast","PostalCode":"18301","State":"Pennsylvania","Phone":"(570) 424-1940","Fax":null},{"Id":"WANDK","CompanyName":"The Wandering Cow","ContactName":"Jazmin Crossley","ContactTitle":"Sales Representative","Address":"2203 Silverado Trl","City":"Napa","Region":"West","PostalCode":"94558","State":"California","Phone":"(707) 255-8632","Fax":null},{"Id":"WARTH","CompanyName":"Wartian Delicacy","ContactName":"Chris Mayo","ContactTitle":"Accounting Manager","Address":"131 Peninsula Dr","City":"Westwood","Region":"West","PostalCode":"96137","State":"California","Phone":"(530) 596-3292","Fax":null},{"Id":"WELLI","CompanyName":"Wellington Importer","ContactName":"Beulah Lugo","ContactTitle":"Sales Manager","Address":"12020 Reisterstown Rd","City":"Reisterstown","Region":"Northeast","PostalCode":"21136","State":"Maryland","Phone":"(410) 517-2246","Fax":null},{"Id":"WHITC","CompanyName":"White Clover Markets","ContactName":"Rosa Rojas","ContactTitle":"Owner","Address":"651 Memorial Dr #C9","City":"Pocatello","Region":"West","PostalCode":"83201","State":"Idaho","Phone":"(208) 478-9091","Fax":null},{"Id":"WILMK","CompanyName":"Wilman Fish","ContactName":"Paige Howard","ContactTitle":"Owner/Marketing Assistant","Address":"202 Dewey Ave","City":"Donnellson","Region":"Midwest","PostalCode":"52625","State":"Iowa","Phone":"(319) 835-3930","Fax":null},{"Id":"WOLZA","CompanyName":"Wolski Inn","ContactName":"Paula Wilson","ContactTitle":"Owner","Address":"5004 Sandy Lake Greenville Rd","City":"Sandy Lake","Region":"Northeast","PostalCode":"16145","State":"Pennsylvania","Phone":"(724) 376-2008","Fax":null}]