[{"Id":1,"CompanyName":"Exotic Liquids","ContactName":"Grace Campbell","ContactTitle":"Purchasing Manager","Address":"248 Jac And Mac St","City":"Raven","Region":"Southeast","PostalCode":"24639","State":"Virginia","Phone":"(276) 964-4382","Fax":null,"HomePage":null},{"Id":2,"CompanyName":"New Orleans Delights","ContactName":"Bert Garrett","ContactTitle":"Order Administrator","Address":"5291 Collins Rd","City":"Middleburg","Region":"Southeast","PostalCode":"32068","State":"Florida","Phone":"(904) 264-9720","Fax":null,"HomePage":null},{"Id":3,"CompanyName":"Grandma Kellys Homestead","ContactName":"Doris Schultz","ContactTitle":"Sales Representative","Address":"488 W Loyola Ave","City":"Clovis","Region":"West","PostalCode":"93619","State":"California","Phone":"(559) 451-0210","Fax":null,"HomePage":null},{"Id":4,"CompanyName":"Tokyo Traders","ContactName":"Judy Gill","ContactTitle":"Marketing Manager","Address":"664 N Holden St","City":"Port Washington","Region":"Midwest","PostalCode":"53074","State":"Wisconsin","Phone":"(262) 284-5862","Fax":null,"HomePage":null},{"Id":5,"CompanyName":"Cheese Cooperative","ContactName":"Herbert Burton","ContactTitle":"Export Administrator","Address":"1823 Bayfield Ct","City":"State College","Region":"Northeast","PostalCode":"16801","State":"Pennsylvania","Phone":"(814) 235-6225","Fax":null,"HomePage":null},{"Id":6,"CompanyName":"Mayumis","ContactName":"Paul Garner","ContactTitle":"Marketing Representative","Address":"956 Huffs Church Rd","City":"Alburtis","Region":"Northeast","PostalCode":"18011","State":"Pennsylvania","Phone":"(610) 845-2296","Fax":null,"HomePage":null},{"Id":7,"CompanyName":"Pavlova","ContactName":"Stella Riley","ContactTitle":"Marketing Manager","Address":"325 Southwind Ln","City":"Dillon","Region":"West","PostalCode":"59725","State":"Montana","Phone":"(406) 683-4575","Fax":null,"HomePage":null},{"Id":8,"CompanyName":"Specialty Biscuits","ContactName":"Daniel Franklin","ContactTitle":"Sales Representative","Address":"22271 Newbridge Dr","City":"Lake Forest","Region":"West","PostalCode":"92630","State":"California","Phone":"(949) 328-9485","Fax":null,"HomePage":null},{"Id":9,"CompanyName":"PB Crispbread","ContactName":"Maureen Ross","ContactTitle":"Sales Agent","Address":"622 Center Hill Church Rd","City":"Chatsworth","Region":"Southeast","PostalCode":"30705","State":"Georgia","Phone":"(706) 517-0969","Fax":null,"HomePage":null},{"Id":10,"CompanyName":"American Refreshments","ContactName":"Julius Simpson","ContactTitle":"Marketing Manager","Address":"14220 Comus Rd","City":"Clarksburg","Region":"Northeast","PostalCode":"20871","State":"Maryland","Phone":"(301) 916-2314","Fax":null,"HomePage":null},{"Id":11,"CompanyName":"Heli Sweeward","ContactName":"Kerry Maldonado","ContactTitle":"Sales Manager","Address":"812 N Morgan St","City":"Angleton","Region":"Southwest","PostalCode":"77515","State":"Texas","Phone":"(979) 849-5436","Fax":null,"HomePage":null},{"Id":12,"CompanyName":"Plutzer Grocery","ContactName":"Mark Cannon","ContactTitle":"International Marketing Mgr.","Address":"Po Box 255","City":"Cleveland","Region":"Southeast","PostalCode":"35049","State":"Alabama","Phone":"(205) 559-8128","Fax":null,"HomePage":null},{"Id":13,"CompanyName":"North East Fish","ContactName":"Teri Holland","ContactTitle":"Coordinator Foreign Markets","Address":"800 Gable Cir SW","City":"Hartselle","Region":"Southeast","PostalCode":"35640","State":"Alabama","Phone":"(256) 751-1227","Fax":null,"HomePage":null},{"Id":14,"CompanyName":"Fortini Cheese","ContactName":"Dwight Bradley","ContactTitle":"Sales Representative","Address":"2106 27th Hwy","City":"Monticello","Region":"Southeast","PostalCode":"39654","State":"Mississippi","Phone":"(601) 587-2954","Fax":null,"HomePage":null},{"Id":15,"CompanyName":"Norwegian Dairies","ContactName":"Marianne Bryan","ContactTitle":"Marketing Manager","Address":"714 Valley Brook Dr","City":"Mount Juliet","Region":"Southeast","PostalCode":"37122","State":"Tennessee","Phone":"(615) 773-4511","Fax":null,"HomePage":null},{"Id":16,"CompanyName":"Bigfoot Breweries","ContactName":"Abel Roberts","ContactTitle":"Regional Account Rep.","Address":"4341 W Mcnab Rd","City":"Pompano Beach","Region":"Southeast","PostalCode":"33069","State":"Florida","Phone":"(954) 935-9905","Fax":null,"HomePage":null},{"Id":17,"CompanyName":"Lake Food","ContactName":"Marlon Andrews","ContactTitle":"Sales Representative","Address":"104 S Franklin St","City":"Gillett","Region":"Midwest","PostalCode":"54124","State":"Wisconsin","Phone":"(920) 846-2658","Fax":null,"HomePage":null},{"Id":18,"CompanyName":"Happy Meal","ContactName":"Eileen Watts","ContactTitle":"Sales Manager","Address":"1904 Hampton Ct","City":"Plainfield","Region":"Midwest","PostalCode":"60586","State":"Illinois","Phone":"(815) 609-1412","Fax":null,"HomePage":null},{"Id":19,"CompanyName":"Seafood Cannery","ContactName":"Tommy Gilbert","ContactTitle":"Wholesale Account Agent","Address":"853 Kenison Rd","City":"Salina","Region":"Midwest","PostalCode":"67401","State":"Kansas","Phone":"(785) 452-9456","Fax":null,"HomePage":null},{"Id":20,"CompanyName":"Johnson Trading","ContactName":"Jamie Stephens","ContactTitle":"Owner","Address":"202 S Pine St","City":"Stephens","Region":"Southeast","PostalCode":"71740","State":"Arkansas","Phone":"(870) 786-5370","Fax":null,"HomePage":null},{"Id":21,"CompanyName":"Food by Sild","ContactName":"Vanessa Todd","ContactTitle":"Sales Manager","Address":"41 Grandview Ave","City":"Glen Rock","Region":"Northeast","PostalCode":"7452","State":"New Jersey","Phone":"(201) 670-8550","Fax":null,"HomePage":null},{"Id":22,"CompanyName":"Candy Factory","ContactName":"Fred Klein","ContactTitle":"Accounting Manager","Address":"7 Bacon St","City":"Oxford","Region":"Northeast","PostalCode":"1540","State":"Massachusetts","Phone":"(508) 987-8307","Fax":null,"HomePage":null},{"Id":23,"CompanyName":"Foodie","ContactName":"Donald Jones","ContactTitle":"Product Manager","Address":"302 Carver St N","City":"Winthrop","Region":"Midwest","PostalCode":"55396","State":"Minnesota","Phone":"(507) 647-2281","Fax":null,"HomePage":null},{"Id":24,"CompanyName":"Gday Mate","ContactName":"Pat Underwood","ContactTitle":"Sales Representative","Address":"37850 Barnesville Bethesda Rd","City":"Bethesda","Region":"Midwest","PostalCode":"43719","State":"Ohio","Phone":"(740) 484-4966","Fax":null,"HomePage":null},{"Id":25,"CompanyName":"My House","ContactName":"Mandy Ford","ContactTitle":"Marketing Manager","Address":"610 White Oak St","City":"Decatur","Region":"Midwest","PostalCode":"49045","State":"Michigan","Phone":"(269) 423-9271","Fax":null,"HomePage":null},{"Id":26,"CompanyName":"Pasta Buttini","ContactName":"Claire Lee","ContactTitle":"Order Administrator","Address":"390 Somerset Rd","City":"Harrisburg","Region":"Midwest","PostalCode":"62946","State":"Illinois","Phone":"(618) 264-4040","Fax":null,"HomePage":null},{"Id":27,"CompanyName":"New Snails","ContactName":"Cristina Chapman","ContactTitle":"Sales Manager","Address":"1510 Downing St","City":"Charleston","Region":"Southeast","PostalCode":"29407","State":"South Carolina","Phone":"(843) 763-6723","Fax":null,"HomePage":null},{"Id":28,"CompanyName":"Gay Grazing","ContactName":"Lela Wheeler","ContactTitle":"Sales Representative","Address":"1588 N Hope Ave #101","City":"Reedley","Region":"West","PostalCode":"93654","State":"California","Phone":"(559) 637-1827","Fax":null,"HomePage":null},{"Id":29,"CompanyName":"Mapper Forests","ContactName":"Noel Peterson","ContactTitle":"Accounting Manager","Address":"7158 N Canal St","City":"New Carlisle","Region":"Midwest","PostalCode":"46552","State":"Indiana","Phone":"(574) 654-8142","Fax":null,"HomePage":null}]